OBJECT_NAME,OBJECT_ID,EPOCH,MEAN_MOTION,ECCENTRICITY,INCLINATION,RA_OF_ASC_NODE,ARG_OF_PERICENTER,MEAN_ANOMALY,EPHEMERIS_TYPE,CLASSIFICATION_TYPE,NORAD_CAT_ID,ELEMENT_SET_NO,REV_AT_EPOCH,BSTAR,MEAN_MOTION_DOT,MEAN_MOTION_DDOT
STARLINK-2518,2021-036BK,2026-07-17T00:51:17.374464,15.31696716,.00010778,53.1589,219.2014,71.4114,288.7004,0,U,48333,999,28786,.34758589E-4,.714E-5,0
STARLINK-2470,2021-036BL,2026-07-17T10:08:20.380704,15.31700740,.00012,53.1586,217.3888,85.2822,274.8317,0,U,48334,999,28792,.16521231E-4,.148E-5,0
YAOGAN-34 01,2021-037A,2026-07-17T16:08:32.303040,13.45436894,.00432776,63.4037,68.0805,352.4437,7.5932,0,U,48340,999,25610,.55423471E-3,.24E-5,0
STARLINK-2613,2021-038A,2026-07-17T11:05:30.406272,15.31709050,.00012813,53.1588,114.3134,88.5870,271.5278,0,U,48353,999,28696,.44773074E-4,.1025E-4,0
STARLINK-2674,2021-038B,2026-07-17T04:56:23.476992,15.31715599,.00012417,53.1592,115.5905,92.8484,267.2659,0,U,48354,999,28692,.88782565E-4,.2392E-4,0
STARLINK-2635,2021-038C,2026-07-17T04:36:14.057568,15.31718412,.0001224,53.1595,115.5476,96.1199,263.9942,0,U,48355,999,28692,.10296596E-3,.2833E-4,0
STARLINK-2637,2021-038D,2026-07-17T03:35:53.845728,15.31704764,.00010644,53.1597,116.0423,86.0671,274.0453,0,U,48356,999,28691,.11891967E-3,.3327E-4,0
STARLINK-2636,2021-038E,2026-07-17T04:29:31.887168,15.31716902,.00013334,53.1612,115.6253,89.5898,270.5257,0,U,48357,999,28692,.98857895E-4,.2705E-4,0
STARLINK-2624,2021-038F,2026-07-17T04:22:48.581472,15.31723666,.00012138,53.1598,115.6056,85.0892,275.0248,0,U,48358,999,28691,.10732442E-3,.2969E-4,0
STARLINK-2628,2021-038G,2026-07-17T03:29:11.724576,15.31709272,.00012696,53.1603,116.1260,78.1359,281.9785,0,U,48359,999,28690,.46189957E-4,.1069E-4,0
STARLINK-2622,2021-038H,2026-07-17T12:05:54.422304,15.31720311,.00012425,53.1597,114.1378,102.9865,257.1275,0,U,48360,999,28696,.11563707E-3,.3227E-4,0
STARLINK-2591,2021-038J,2026-07-17T11:59:10.729536,15.31723176,.00015335,53.1604,114.1504,98.7771,261.3405,0,U,48361,999,28696,.11231186E-3,.3124E-4,0
STARLINK-2578,2021-038K,2026-07-17T00:01:04.838880,15.31713136,.00011949,53.1587,116.4629,103.0929,257.0206,0,U,48362,999,28689,.19008396E-3,.554E-4,0
STARLINK-2611,2021-038M,2026-07-17T03:11:46.439232,15.31708563,.00013451,53.1606,105.5093,90.3827,269.7328,0,U,48364,999,28706,.64060457E-4,.1624E-4,0
STARLINK-2608,2021-038N,2026-07-17T02:51:39.331008,15.31708550,.00012196,53.1599,105.6321,89.1793,270.9348,0,U,48365,999,28706,.20172217E-4,.261E-5,0
STARLINK-2643,2021-038Q,2026-07-17T00:43:40.153440,15.31716164,.00012854,53.1583,103.5849,99.9245,260.1901,0,U,48367,999,28707,.14191411E-3,.4043E-4,0
STARLINK-2623,2021-038R,2026-07-17T03:25:18.414336,15.31715136,.00012745,53.1597,106.0371,91.4032,268.7116,0,U,48368,999,28705,.137695E-3,.3912E-4,0
STARLINK-2621,2021-038T,2026-07-17T10:54:51.503328,15.31706519,.0001221,53.1600,103.9759,93.6232,266.4909,0,U,48370,999,28710,.3537598E-5,-.255E-5,0
STARLINK-2589,2021-038U,2026-07-17T00:10:34.482720,15.31712962,.0001022,53.1595,106.1965,79.1824,280.9293,0,U,48371,999,28703,.12333674E-4,.18E-6,0
STARLINK-2609,2021-038W,2026-07-17T00:30:15.078240,15.31716254,.00013451,53.1604,103.7151,98.6058,261.5095,0,U,48373,999,28707,.84322709E-4,.2254E-4,0
STARLINK-2604,2021-038X,2026-07-17T01:10:58.019232,15.31717105,.00012416,53.1604,105.8858,79.4523,280.6618,0,U,48374,999,28704,.80446498E-4,.2133E-4,0
STARLINK-2603,2021-038Y,2026-07-17T02:45:25.202592,15.31714757,.00013345,53.1590,105.6014,92.3970,267.7184,0,U,48375,999,28705,.83409386E-4,.2225E-4,0
STARLINK-2610,2021-038Z,2026-07-17T10:05:32.102880,15.72862720,.0001902,53.1563,90.3352,133.7373,226.3804,0,U,48376,999,28729,.46895201E-3,.64763E-3,0
STARLINK-2499,2021-038AA,2026-07-17T04:12:11.300256,15.31714741,.00012437,53.1608,105.3762,94.9115,265.2028,0,U,48377,999,28706,.4619451E-4,.1069E-4,0
STARLINK-2526,2021-038AB,2026-07-17T02:58:23.772864,15.31708013,.0001506,53.1614,105.7712,100.4325,259.6846,0,U,48378,999,28705,.51402558E-4,.123E-4,0
STARLINK-2612,2021-038AC,2026-07-17T03:44:56.601888,15.31709895,.0001426,53.1583,103.3517,95.9584,264.1580,0,U,48379,999,28709,.21666377E-3,.6366E-4,0
STARLINK-2614,2021-038AD,2026-07-16T23:16:27.400512,15.31711044,.00012536,53.1598,104.1003,94.1389,265.9756,0,U,48380,999,28706,.54640592E-4,.1331E-4,0
STARLINK-2630,2021-038AE,2026-07-17T00:24:05.750208,15.31712355,.00013641,53.1601,106.6053,75.4450,284.6703,0,U,48381,999,28703,.32257017E-4,.636E-5,0
STARLINK-2585,2021-038AF,2026-07-17T00:37:53.570208,15.31716290,.00012658,53.1610,105.9983,86.8782,273.2364,0,U,48382,999,28704,.76614198E-4,.2014E-4,0
STARLINK-2598,2021-038AJ,2026-07-17T10:20:51.102528,15.31707781,.00012543,53.1607,101.7440,96.4624,263.6521,0,U,48385,999,28836,.2650351E-5,-.283E-5,0
