STARLINK-2518           
1 48333U 21036BK  26198.03561776  .00000714  00000+0  34759-4 0  9997
2 48333  53.1589 219.2014 0001077  71.4114 288.7004 15.31696716287861
STARLINK-2470           
1 48334U 21036BL  26198.42245811  .00000148  00000+0  16521-4 0  9998
2 48334  53.1586 217.3888 0001200  85.2822 274.8317 15.31700740287927
YAOGAN-34 01            
1 48340U 21037A   26198.67259610  .00000240  00000+0  55423-3 0  9991
2 48340  63.4037  68.0805 0043277 352.4437   7.5932 13.45436894256109
STARLINK-2613           
1 48353U 21038A   26198.46215748  .00001025  00000+0  44773-4 0  9996
2 48353  53.1588 114.3134 0001281  88.5870 271.5278 15.31709050286964
STARLINK-2674           
1 48354U 21038B   26198.20582728  .00002392  00000+0  88783-4 0  9991
2 48354  53.1592 115.5905 0001241  92.8484 267.2659 15.31715599286920
STARLINK-2635           
1 48355U 21038C   26198.19182937  .00002833  00000+0  10297-3 0  9992
2 48355  53.1595 115.5476 0001224  96.1199 263.9942 15.31718412286923
STARLINK-2637           
1 48356U 21038D   26198.14992877  .00003327  00000+0  11892-3 0  9991
2 48356  53.1597 116.0423 0001064  86.0671 274.0453 15.31704764286913
STARLINK-2636           
1 48357U 21038E   26198.18717462  .00002705  00000+0  98858-4 0  9998
2 48357  53.1612 115.6253 0001333  89.5898 270.5257 15.31716902286927
STARLINK-2624           
1 48358U 21038F   26198.18250673  .00002969  00000+0  10732-3 0  9991
2 48358  53.1598 115.6056 0001213  85.0892 275.0248 15.31723666286918
STARLINK-2628           
1 48359U 21038G   26198.14527459  .00001069  00000+0  46190-4 0  9995
2 48359  53.1603 116.1260 0001269  78.1359 281.9785 15.31709272286909
STARLINK-2622           
1 48360U 21038H   26198.50410211  .00003227  00000+0  11564-3 0  9998
2 48360  53.1597 114.1378 0001242 102.9865 257.1275 15.31720311286962
STARLINK-2591           
1 48361U 21038J   26198.49942974  .00003124  00000+0  11231-3 0  9990
2 48361  53.1604 114.1504 0001533  98.7771 261.3405 15.31723176286968
STARLINK-2578           
1 48362U 21038K   26198.00075045  .00005540  00000+0  19008-3 0  9998
2 48362  53.1587 116.4629 0001194 103.0929 257.0206 15.31713136286898
STARLINK-2611           
1 48364U 21038M   26198.13317638  .00001624  00000+0  64060-4 0  9999
2 48364  53.1606 105.5093 0001345  90.3827 269.7328 15.31708563287062
STARLINK-2608           
1 48365U 21038N   26198.11920522  .00000261  00000+0  20172-4 0  9992
2 48365  53.1599 105.6321 0001219  89.1793 270.9348 15.31708550287069
STARLINK-2643           
1 48367U 21038Q   26198.03032585  .00004043  00000+0  14191-3 0  9993
2 48367  53.1583 103.5849 0001285  99.9245 260.1901 15.31716164287077
STARLINK-2623           
1 48368U 21038R   26198.14257424  .00003912  00000+0  13769-3 0  9991
2 48368  53.1597 106.0371 0001274  91.4032 268.7116 15.31715136287058
STARLINK-2621           
1 48370U 21038T   26198.45476277 -.00000255  00000+0  35376-5 0  9995
2 48370  53.1600 103.9759 0001221  93.6232 266.4909 15.31706519287106
STARLINK-2589           
1 48371U 21038U   26198.00734355  .00000018  00000+0  12334-4 0  9995
2 48371  53.1595 106.1965 0001022  79.1824 280.9293 15.31712962287037
STARLINK-2609           
1 48373U 21038W   26198.02100785  .00002254  00000+0  84323-4 0  9994
2 48373  53.1604 103.7151 0001345  98.6058 261.5095 15.31716254287070
STARLINK-2604           
1 48374U 21038X   26198.04928263  .00002133  00000+0  80446-4 0  9994
2 48374  53.1604 105.8858 0001241  79.4523 280.6618 15.31717105287043
STARLINK-2603           
1 48375U 21038Y   26198.11487503  .00002225  00000+0  83409-4 0  9994
2 48375  53.1590 105.6014 0001334  92.3970 267.7184 15.31714757287058
STARLINK-2610           
1 48376U 21038Z   26198.42051045  .00064763  00000+0  46895-3 0  9999
2 48376  53.1563  90.3352 0001902 133.7373 226.3804 15.72862720287297
STARLINK-2499           
1 48377U 21038AA  26198.17513079  .00001069  00000+0  46195-4 0  9996
2 48377  53.1608 105.3762 0001243  94.9115 265.2028 15.31714741287069
STARLINK-2526           
1 48378U 21038AB  26198.12388626  .00001230  00000+0  51403-4 0  9998
2 48378  53.1614 105.7712 0001506 100.4325 259.6846 15.31708013287053
STARLINK-2612           
1 48379U 21038AC  26198.15621067  .00006366  00000+0  21666-3 0  9993
2 48379  53.1583 103.3517 0001426  95.9584 264.1580 15.31709895287091
STARLINK-2614           
1 48380U 21038AD  26197.96976158  .00001331  00000+0  54641-4 0  9994
2 48380  53.1598 104.1003 0001253  94.1389 265.9756 15.31711044287060
STARLINK-2630           
1 48381U 21038AE  26198.01673322  .00000636  00000+0  32257-4 0  9995
2 48381  53.1601 106.6053 0001364  75.4450 284.6703 15.31712355287035
STARLINK-2585           
1 48382U 21038AF  26198.02631447  .00002014  00000+0  76614-4 0  9996
2 48382  53.1610 105.9983 0001265  86.8782 273.2364 15.31716290287044
STARLINK-2598           
1 48385U 21038AJ  26198.43114702 -.00000283  00000+0  26504-5 0  9995
2 48385  53.1607 101.7440 0001254  96.4624 263.6521 15.31707781288364
